INTELSAT 21 (IS-21)     
1 38749U 12045A   26160.25904939 -.00000268  00000+0  00000+0 0  9994
2 38749   0.0254 280.1453 0001705 176.9501 195.8000  1.00267645 50446
INTELSAT 23 (IS-23)     
1 38867U 12057A   26160.18030709 -.00000268  00000+0  00000+0 0  9995
2 38867   0.0104 345.9313 0000467 117.0400 166.5175  1.00274773 49877
FM-6                    
1 39360U 13058A   26159.62959519  .00000003  00000+0  00000+0 0  9998
2 39360   0.0107  82.6412 0002771  69.5183 215.1325  1.00255605 45982
INTELSAT 30 (IS-30)     
1 40271U 14062A   26160.24740331 -.00000133  00000+0  00000+0 0  9992
2 40271   0.0207  36.9615 0000901 354.5900 220.0363  1.00268225  6717
DIRECTV 14              
1 40333U 14078B   26160.05357880 -.00000109  00000+0  00000+0 0  9993
2 40333   0.0091   1.3268 0000235 206.1301 330.0282  1.00271044 41965
DIRECTV 15              
1 40663U 15026A   26160.03626279 -.00000086  00000+0  00000+0 0  9996
2 40663   0.0035  71.5412 0000541 190.7091 265.3619  1.00272723 40387
SKY MEXICO-1            
1 40664U 15026B   26160.20013617 -.00000218  00000+0  00000+0 0  9999
2 40664   0.0142 294.5315 0002144 162.1434 154.1592  1.00271300 40375
INTELSAT 34 (IS-34)     
1 40874U 15039A   26160.25956939 -.00000269  00000+0  00000+0 0  9990
2 40874   0.0132 314.3372 0001059  71.8928 269.3837  1.00283386 39555
INTELSAT 31 (IS-31)     
1 41581U 16035A   26160.24740355 -.00000134  00000+0  00000+0 0  9996
2 41581   0.0207 261.7205 0000921 344.8969   5.0340  1.00270941 36609
INTELSAT 36 (IS-36)     
1 41747U 16053A   26160.21283448 -.00000007  00000+0  00000+0 0  9991
2 41747   0.0107 348.5946 0001898 347.6666  66.4482  1.00270500 35874
INTELSAT 32E (IS-32E)   
1 41945U 17007B   26160.08652259 -.00000252  00000+0  00000+0 0  9998
2 41945   0.0023 348.0424 0000672 336.8096 280.6015  1.00274840 34145
INTELSAT 35E (IS-35E)   
1 42818U 17041A   26160.26372941 -.00000221  00000+0  00000+0 0  9999
2 42818   0.0188   5.7538 0001608  72.5158 239.8454  1.00271523 32734
INTELSAT 37E (IS-37E)   
1 42950U 17059A   26160.27336319  .00000000  00000+0  00000+0 0  9999
2 42950   0.0198 355.9385 0002310 106.2847 235.8339  1.00268411 31989
AZERSPACE 2 (IS-38)     
1 43632U 18074A   26160.20824112  .00000153  00000+0  00000+0 0  9990
2 43632   0.0026  18.9119 0001349  58.5830 300.1708  1.00271429 28367
HORIZONS-3E             
1 43633U 18074B   26160.16142285 -.00000014  00000+0  00000+0 0  9997
2 43633   0.0093 158.1609 0000956 124.5481 201.9406  1.00270197 28265
AT&T T-16               
1 44333U 19034A   26160.25061771 -.00000098  00000+0  00000+0 0  9994
2 44333   0.0225  64.6989 0000624 191.7212 350.5742  1.00268760 25558
INTELSAT 39 (IS-39)     
1 44476U 19049B   26160.00679632  .00000051  00000+0  00000+0 0  9990
2 44476   0.0162 310.4453 0001155  11.0959   0.2561  1.00266551 25044
GALAXY 30 (G-30)        
1 46114U 20056C   26160.24585102  .00000053  00000+0  00000+0 0  9997
2 46114   0.0171 310.9936 0002169 122.8496 147.2883  1.00273309 21212
GALAXY 33 (G-33)        
1 54026U 22128A   26160.27613769  .00000096  00000+0  00000+0 0  9991
2 54026   0.0121 308.7866 0001847 135.9909 139.3033  1.00271382 13669
GALAXY 34 (G-34)        
1 54027U 22128B   26159.95980211  .00000075  00000+0  00000+0 0  9991
2 54027   0.0154 329.7482 0001861 136.9348   7.2031  1.00274719 13834
GALAXY 31 (G-31)        
1 54243U 22153A   26160.22211450  .00000030  00000+0  00000+0 0  9994
2 54243   0.0144 269.1002 0001286 167.7691 139.6994  1.00272096  7053
GALAXY 32 (G-32)        
1 54244U 22153B   26159.96734213 -.00000158  00000+0  00000+0 0  9993
2 54244   0.0093 329.2269 0002186  68.0568 117.3143  1.00271040 13061
GALAXY 35 (G-35)        
1 54741U 22170A   26160.25209104 -.00000145  00000+0  00000+0 0  9990
2 54741   0.0325 103.1895 0002039 338.0192 174.0810  1.00271206 12812
GALAXY 36 (G-36)        
1 54742U 22170B   26160.25295771 -.00000168  00000+0  00000+0 0  9991
2 54742   0.0152 151.4867 0002656 291.7430 176.4718  1.00270864 12699
GALAXY 37 (G-37)        
1 57493U 23112A   26160.24541769  .00000065  00000+0  00000+0 0  9999
2 57493   0.0184 352.1249 0001913  87.6694 139.1860  1.00271774 10461
